ONEWEB-0086             
1 45456U 20020AJ  24015.86346772  .00000380  00000+0  10357-2 0  9991
2 45456  87.8971 196.6169 0001534 110.7602 249.3691 13.11417424186832
ONEWEB-0088             
1 45457U 20020AK  24015.53553547 -.00000412  00000+0 -11996-2 0  9994
2 45457  87.8958 196.6531 0001410  98.2033 261.9255 13.11417886186728
ONEWEB-0102             
1 47258U 20100A   24015.85190723 -.00000478  00000+0 -13650-2 0  9993
2 47258  87.9019 166.4170 0001490  90.4445 269.6855 13.12443235148863
ONEWEB-0109             
1 47259U 20100B   24015.85986681  .00000435  00000+0  11728-2 0  9995
2 47259  87.9022 166.3782 0001549  95.3822 264.7483 13.12445509148694
ONEWEB-0111             
1 47261U 20100D   24015.84080341 -.00000058  00000+0 -19553-3 0  9993
2 47261  87.9021 166.3851 0001544  96.1833 263.9471 13.12443873148699
ONEWEB-0114             
1 47262U 20100E   24015.87098300  .00000380  00000+0  10204-2 0  9990
2 47262  87.9017 166.4013 0001550  75.6441 284.4860 13.12441702148655
ONEWEB-0117             
1 47263U 20100F   24015.86304418  .00000465  00000+0  12559-2 0  9999
2 47263  87.9019 166.3717 0001440  97.4437 262.6855 13.12443258148664
